{
    "links": {
        "self": "http://www.neowsapp.com/rest/v1/neo/3878557?api_key=iIulBulltgU6a56xZRHN4H3l9WmuAYTsLGpBGhQ2"
    },
    "id": "3878557",
    "neo_reference_id": "3878557",
    "name": "(2019 TN1)",
    "designation": "2019 TN1",
    "nasa_jpl_url": "http://ssd.jpl.nasa.gov/sbdb.cgi?sstr=3878557",
    "absolute_magnitude_h": 26.7,
    "estimated_diameter": {
        "kilometers": {
            "estimated_diameter_min": 0.0121494041,
            "estimated_diameter_max": 0.0271668934
        },
        "meters": {
            "estimated_diameter_min": 12.14940408,
            "estimated_diameter_max": 27.1668934089
        },
        "miles": {
            "estimated_diameter_min": 0.0075492874,
            "estimated_diameter_max": 0.0168807197
        },
        "feet": {
            "estimated_diameter_min": 39.8602508817,
            "estimated_diameter_max": 89.1302305717
        }
    },
    "is_potentially_hazardous_asteroid": false,
    "close_approach_data": [
        {
            "close_approach_date": "2017-10-13",
            "close_approach_date_full": "2017-Oct-13 06:30",
            "epoch_date_close_approach": 1507876200000,
            "relative_velocity": {
                "kilometers_per_second": "3.8436848653",
                "kilometers_per_hour": "13837.2655150583",
                "miles_per_hour": "8597.9386751761"
            },
            "miss_distance": {
                "astronomical": "1.3556710867",
                "lunar": "527.3560527263",
                "kilometers": "202805506.990905329",
                "miles": "126017498.5350943802"
            },
            "orbiting_body": "Juptr"
        },
        {
            "close_approach_date": "2019-10-12",
            "close_approach_date_full": "2019-Oct-12 15:43",
            "epoch_date_close_approach": 1570894980000,
            "relative_velocity": {
                "kilometers_per_second": "8.5299802574",
                "kilometers_per_hour": "30707.9289267247",
                "miles_per_hour": "19080.7128378307"
            },
            "miss_distance": {
                "astronomical": "0.0329218924",
                "lunar": "12.8066161436",
                "kilometers": "4925044.979409188",
                "miles": "3060281.0430872744"
            },
            "orbiting_body": "Earth"
        }
    ],
    "orbital_data": {
        "orbit_id": "3",
        "orbit_determination_date": "2019-12-04 07:19:54",
        "first_observation_date": "2019-10-03",
        "last_observation_date": "2019-10-06",
        "data_arc_in_days": 3,
        "observations_used": 20,
        "orbit_uncertainty": "8",
        "minimum_orbit_intersection": ".0268609",
        "jupiter_tisserand_invariant": "3.113",
        "epoch_osculation": "2458761.5",
        "eccentricity": ".6140157019609335",
        "semi_major_axis": "2.604816252564346",
        "inclination": "2.819670640528589",
        "ascending_node_longitude": "181.1406253106067",
        "orbital_period": "1535.550367637695",
        "perihelion_distance": "1.005418172766801",
        "perihelion_argument": "216.2373418175023",
        "aphelion_distance": "4.204214332361892",
        "perihelion_time": "2458783.756095669476",
        "mean_anomaly": "354.782200174041",
        "mean_motion": ".2344436285433133",
        "equinox": "J2000",
        "orbit_class": {
            "orbit_class_type": "APO",
            "orbit_class_description": "Near-Earth asteroid orbits which cross the Earth’s orbit similar to that of 1862 Apollo",
            "orbit_class_range": "a (semi-major axis) > 1.0 AU; q (perihelion) < 1.017 AU"
        }
    },
    "is_sentry_object": false
}